[1642072004gu9]
absolute_magnitude             = 21.1
albedo                         = 0.15
discoverer                     = LINEAR
discovery                      = 2004-04-13
iau_designation                = 2004 GU9
minor_planet_number            = 164207
orbit_ArgOfPericenter          = 279.5931
orbit_AscendingNode            = 38.45728
orbit_Eccentricity             = 0.1359726
orbit_Epoch                    = 2460000.5
orbit_Inclination              = 13.65146
orbit_MeanAnomaly              = 193.22732
orbit_MeanMotion               = 0.98378983
orbit_SemiMajorAxis            = 1.0012315
radius                         = 1
type                           = asteroid

[174567varda]
absolute_magnitude             = 3.4
albedo                         = 0.15
discoverer                     = J.A. Larsen
discovery                      = 2003-06-21
iau_designation                = 2003 MW12
minor_planet_number            = 174567
name                           = Varda
orbit_ArgOfPericenter          = 184.19226
orbit_AscendingNode            = 184.25352
orbit_Eccentricity             = 0.1450385
orbit_Epoch                    = 2460400.5
orbit_Inclination              = 21.51897
orbit_MeanAnomaly              = 275.54665
orbit_MeanMotion               = 0.0031982
orbit_SemiMajorAxis            = 45.6246357
radius                         = 717
type                           = cubewano

[1809prometheus]
absolute_magnitude             = 11.6
albedo                         = 0.126
discoverer                     = C.J. van Houten, I. van Houten-Groeneveld, T. Gehrels
discovery                      = 1960-09-24
iau_designation                = 2522 P-L
minor_planet_number            = 1809
name                           = Prometheus
orbit_ArgOfPericenter          = 230.96892
orbit_AscendingNode            = 99.4364
orbit_Eccentricity             = 0.0993561
orbit_Epoch                    = 2460600.5
orbit_Inclination              = 3.25905
orbit_MeanAnomaly              = 315.53338
orbit_MeanMotion               = 0.19670684
orbit_SemiMajorAxis            = 2.9281259
radius                         = 7.106
type                           = asteroid

[1810epimetheus]
absolute_magnitude             = 12.6
albedo                         = 0.274
discoverer                     = C.J. van Houten, I. van Houten-Groeneveld, T. Gehrels
discovery                      = 1960-09-24
iau_designation                = 4196 P-L
minor_planet_number            = 1810
name                           = Epimetheus
orbit_ArgOfPericenter          = 203.72524
orbit_AscendingNode            = 254.06591
orbit_Eccentricity             = 0.0921549
orbit_Epoch                    = 2460600.5
orbit_Inclination              = 4.0343
orbit_MeanAnomaly              = 31.37204
orbit_MeanMotion               = 0.29723895
orbit_SemiMajorAxis            = 2.2236456
radius                         = 3.8345
type                           = asteroid

[1864daedalus]
absolute_magnitude             = 14.7
albedo                         = 0.273
color_index_bv                 = 0.830
discoverer                     = T. Gehrels
discovery                      = 1971-03-24
iau_designation                = 1971 FA
minor_planet_number            = 1864
name                           = Daedalus
orbit_ArgOfPericenter          = 325.66177
orbit_AscendingNode            = 6.61265
orbit_Eccentricity             = 0.6142895
orbit_Epoch                    = 2460600.5
orbit_Inclination              = 22.2128
orbit_MeanAnomaly              = 34.27523
orbit_MeanMotion               = 0.55810206
orbit_SemiMajorAxis            = 1.4610339
radius                         = 1.85
spec_b                         = Sr
spec_t                         = SQ
type                           = asteroid

[1866sisyphus]
absolute_magnitude             = 12.4
albedo                         = 0.15
discoverer                     = P. Wild
discovery                      = 1972-12-05
iau_designation                = 1972 XA
minor_planet_number            = 1866
name                           = Sisyphus
orbit_ArgOfPericenter          = 293.11537
orbit_AscendingNode            = 63.45417
orbit_Eccentricity             = 0.5380221
orbit_Epoch                    = 2460600.5
orbit_Inclination              = 41.20828
orbit_MeanAnomaly              = 349.33913
orbit_MeanMotion               = 0.37821109
orbit_SemiMajorAxis            = 1.8937089
radius                         = 4.24
spec_b                         = S
type                           = asteroid

[18dperrinemrkos(2024)]
absolute_magnitude             = 9
discoverer                     = Ch.D. Perrine
discovery                      = 1896-12-09
discovery_code                 = 1896g
iau_designation                = D/1896 X1
name                           = 18D/Perrine-Mrkos (2024)
orbit_ArgOfPericenter          = 238.234
orbit_AscendingNode            = 158.46
orbit_Eccentricity             = 0.58966
orbit_Epoch                    = 2460665.5
orbit_Inclination              = 17.657
orbit_PericenterDistance       = 1.59347
orbit_TimeAtPericenter         = 2460551.704
orbit_good                     = 1000
perihelion_code                = 1896 VII
ref                            = 19, 80
slope_parameter                = 4
type                           = comet

[190pmueller(2024)]
absolute_magnitude             = 13
discoverer                     = J. Mueller
discovery                      = 1998-10-21
iau_designation                = P/1998 U2
name                           = 190P/Mueller (2024)
orbit_ArgOfPericenter          = 50.5246
orbit_AscendingNode            = 335.4998
orbit_Eccentricity             = 0.522267
orbit_Epoch                    = 2460665.5
orbit_Inclination              = 2.1746
orbit_PericenterDistance       = 2.019511
orbit_TimeAtPericenter         = 2460668.632
orbit_good                     = 1000
ref                            = MPEC 2020-K19
slope_parameter                = 4
type                           = comet

[192pshoemakerlevy(2024)]
absolute_magnitude             = 15
discoverer                     = C.S. Shoemaker, E.M. Shoemaker, D.H. Levy
discovery                      = 1990-11-15
discovery_code                 = 1990o
iau_designation                = P/1990 V1
name                           = 192P/Shoemaker-Levy (2024)
orbit_ArgOfPericenter          = 313.0763
orbit_AscendingNode            = 51.6066
orbit_Eccentricity             = 0.773515
orbit_Epoch                    = 2460665.5
orbit_Inclination              = 24.5855
orbit_PericenterDistance       = 1.464142
orbit_TimeAtPericenter         = 2460455.0414
orbit_good                     = 1000
perihelion_code                = 1990 XV
ref                            = MPC 75724
slope_parameter                = 4
type                           = comet

